CYGNUS NG-23            
1 65616U 25208A   25357.18166772  .00011641  00000+0  21351-3 0  9998
2 65616  51.6323  90.7678 0003190 289.6661  70.3984 15.49746572   229
1998-067XK              
1 65731U 98067XK  25357.25863464  .00103596  00000+0  91991-3 0  9997
2 65731  51.6292  83.7873 0004961 312.0823  47.9751 15.67713225 14797
YOTSUBA-KULOVER         
1 65941U 98067XN  25357.28151477  .00069963  00000+0  82116-3 0  9995
2 65941  51.6291  86.9403 0002233 346.8625  13.2310 15.60829140 11508
BOTAN                   
1 65942U 98067XP  25357.26137366  .00114200  00000+0  11277-2 0  9999
2 65942  51.6284  86.0542 0003227 325.6529  34.4257 15.65035738 11511
E-KAGAKU-1              
1 65943U 98067XQ  25356.44925386  .00073283  00000+0  86344-3 0  9999
2 65943  51.6319  91.1385 0001296 295.9007  64.1852 15.60710313 11376
HTV-X1                  
1 66174U 25241A   25357.18166772  .00011641  00000+0  21351-3 0  9995
2 66174  51.6323  90.7678 0003190 289.6661  70.3984 15.49746572   511
SZ-21 MODULE            
1 66515U 25246C   25357.21160594  .00028357  00000+0  30580-3 0  9995
2 66515  41.4769 312.1416 0005036 316.3209  43.7232 15.63016962  6086
SHENZHOU-22             
1 66645U 25272A   25357.28190550  .00018298  00000+0  22671-3 0  9995
2 66645  41.4686 312.6856 0007971 124.3462 235.8132 15.59596422265505
